H1 CPF 01  gfz 2021 10 12 12  7852 terrasarx 
H2 0702601  6201 31698    2021 10 12 12 59 42 2021 10 17 00 00 42   120 1 1  0 0 0
H9
10 0 59502  35982.000000  0     406347.195   1059835.298   6783610.847
10 0 59502  36102.000000  0     874556.063    268116.815   6816750.996
10 0 59502  36222.000000  0    1313543.210   -536218.512   6730124.356
10 0 59502  36342.000000  0    1715555.750  -1338557.931   6525241.618
10 0 59502  36462.000000  0    2073737.650  -2124190.164   6205679.089
10 0 59502  36582.000000  0    2382247.583  -2878575.414   5777021.142
10 0 59502  36702.000000  0    2636356.013  -3587616.484   5246768.006
10 0 59502  36822.000000  0    2832518.837  -4237925.357   4624209.912
10 0 59502  36942.000000  0    2968427.468  -4817081.304   3920270.247
10 0 59502  37062.000000  0    3043033.936  -5313875.104   3147316.672
10 0 59502  37182.000000  0    3056549.759  -5718533.657   2318944.920
10 0 59502  37302.000000  0    3010417.982  -6022919.676   1449736.942
10 0 59502  37422.000000  0    2907259.098  -6220700.056    554999.694
10 0 59502  37542.000000  0    2750793.966  -6307480.748   -349510.223
10 0 59502  37662.000000  0    2545743.027  -6280904.716  -1247873.370
10 0 59502  37782.000000  0    2297704.319  -6140706.081  -2124297.450
10 0 59502  37902.000000  0    2013015.134  -5888723.546  -2963401.808
10 0 59502  38022.000000  0    1698598.620  -5528871.229  -3750494.240
10 0 59502  38142.000000  0    1361801.412  -5067066.092  -4471828.897
10 0 59502  38262.000000  0    1010228.483  -4511118.597  -5114843.316
10 0 59502  38382.000000  0     651576.592  -3870589.625  -5668370.757
10 0 59502  38502.000000  0     293470.503  -3156616.401  -6122825.325
10 0 59502  38622.000000  0     -56694.435  -2381711.760  -6470356.820
10 0 59502  38742.000000  0    -391900.310  -1559541.463  -6704974.857
10 0 59502  38862.000000  0    -705642.570   -704683.621  -6822642.084
10 0 59502  38982.000000  0    -992051.728    167626.808  -6821336.391
10 0 59502  39102.000000  0   -1246000.016   1041763.606  -6701080.644
10 0 59502  39222.000000  0   -1463191.037   1901981.895  -6463942.225
10 0 59502  39342.000000  0   -1640230.874   2732694.431  -6114001.307
10 0 59502  39462.000000  0   -1774680.986   3518749.266  -5657289.809
10 0 59502  39582.000000  0   -1865091.166   4245704.388  -5101697.447
10 0 59502  39702.000000  0   -1911012.391   4900094.966  -4456847.394
10 0 59502  39822.000000  0   -1912989.146   5469688.574  -3733939.692
10 0 59502  39942.000000  0   -1872530.258   5943721.380  -2945564.871
10 0 59502  40062.000000  0   -1792058.751   6313111.196  -2105491.367
10 0 59502  40182.000000  0   -1674842.464   6570643.317  -1228427.795
10 0 59502  40302.000000  0   -1524905.746   6711121.661   -329764.323
10 0 59502  40422.000000  0   -1346924.584   6731483.429    574700.657
10 0 59502  40542.000000  0   -1146107.055   6630873.291   1469047.106
10 0 59502  40662.000000  0    -928062.525   6410669.142   2337525.139
10 0 59502  40782.000000  0    -698662.544   6074461.621   3164840.523
10 0 59502  40902.000000  0    -463897.890   5627991.125   3936429.928
10 0 59502  41022.000000  0    -229735.722   5079044.081   4638722.109
10 0 59502  41142.000000  0      -1978.964   4437305.990   5259381.739
10 0 59502  41262.000000  0     213868.846   3714178.685   5787521.513
10 0 59502  41382.000000  0     412727.900   2922570.935   6213890.178
10 0 59502  41502.000000  0     590054.514   2076659.539   6531029.349
10 0 59502  41622.000000  0     741939.390   1191630.673   6733397.757
10 0 59502  41742.000000  0     865189.799    283404.087   6817462.102
10 0 59502  41862.000000  0     957394.397   -631652.624   6781754.325
10 0 59502  41982.000000  0    1016969.597  -1537018.273   6626896.938
10 0 59502  42102.000000  0    1043186.827  -2416316.080   6355593.129
10 0 59502  42222.000000  0    1036180.265  -3253610.620   5972583.130
10 0 59502  42342.000000  0     996934.090  -4033699.025   5484564.848
10 0 59502  42462.000000  0     927251.252  -4742388.935   4900081.525
10 0 59502  42582.000000  0     829703.932  -5366761.626   4229379.271
10 0 59502  42702.000000  0     707565.871  -5895416.954   3484233.019
10 0 59502  42822.000000  0     564727.769  -6318692.050   2677741.590
10 0 59502  42942.000000  0     405597.372  -6628847.787   1824096.488
10 0 59502  43062.000000  0     234986.731  -6820218.856    938329.305
10 0 59502  43182.000000  0      57989.626  -6889326.018     36041.202
10 0 59502  43302.000000  0    -120148.853  -6834943.154   -866882.277
10 0 59502  43422.000000  0    -294165.341  -6658116.542  -1754560.687
10 0 59502  43542.000000  0    -458910.951  -6362138.860  -2611405.254
10 0 59502  43662.000000  0    -609480.665  -5952479.970  -3422398.251
10 0 59502  43782.000000  0    -741336.431  -5436674.976  -4173359.818
10 0 59502  43902.000000  0    -850420.492  -4824172.181  -4851195.448
10 0 59502  44022.000000  0    -933256.373  -4126147.552  -5444119.020
10 0 59502  44142.000000  0    -987035.490  -3355290.488  -5941849.776
10 0 59502  44262.000000  0   -1009687.520  -2525565.526  -6335780.568
10 0 59502  44382.000000  0    -999933.658  -1651954.864  -6619115.401
10 0 59502  44502.000000  0    -957322.099   -750187.736  -6786975.340
10 0 59502  44622.000000  0    -882245.491    163539.495  -6836473.893
10 0 59502  44742.000000  0    -775939.120   1072848.411  -6766760.212
10 0 59502  44862.000000  0    -640460.839   1961464.274  -6579031.895
10 0 59502  44982.000000  0    -478653.345   2813499.753  -6276516.847
10 0 59502  45102.000000  0    -294088.311   3613733.892  -5864425.301
10 0 59502  45222.000000  0     -90992.846   4347882.652  -5349869.383
10 0 59502  45342.000000  0     125839.893   5002854.720  -4741751.302
10 0 59502  45462.000000  0     351154.471   5566990.898  -4050620.999
10 0 59502  45582.000000  0     579350.099   6030280.842  -3288502.588
10 0 59502  45702.000000  0     804608.271   6384551.769  -2468692.464
10 0 59502  45822.000000  0    1021028.567   6623625.564  -1605531.475
10 0 59502  45942.000000  0    1222769.456   6743439.185   -714153.867
10 0 59502  46062.000000  0    1404190.835   6742124.329    189782.102
10 0 59502  46182.000000  0    1559994.358   6620042.645   1090376.254
10 0 59502  46302.000000  0    1685356.962   6379776.314   1971773.794
10 0 59502  46422.000000  0    1776055.505   6026075.151   2818452.478
10 0 59502  46542.000000  0    1828579.038   5565760.615   3615503.691
10 0 59502  46662.000000  0    1840225.368   5007588.531   4348902.326
10 0 59502  46782.000000  0    1809179.762   4362073.342   5005757.918
10 0 59502  46902.000000  0    1734573.631   3641278.134   5574542.278
10 0 59502  47022.000000  0    1616521.881   2858580.444   6045286.512
10 0 59502  47142.000000  0    1456139.813   2028417.903   6409751.596
10 0 59502  47262.000000  0    1255537.958   1166016.179   6661567.308
10 0 59502  47382.000000  0    1017795.596    287106.070   6796336.570
10 0 59502  47502.000000  0     746913.613   -592362.648   6811706.739
10 0 59502  47622.000000  0     447747.039  -1456510.002   6707409.844
10 0 59502  47742.000000  0     125917.864  -2289812.665   6485267.048
10 0 59502  47862.000000  0    -212290.509  -3077383.252   6149158.876
10 0 59502  47982.000000  0    -560054.289  -3805237.705   5704959.346
10 0 59502  48102.000000  0    -910143.614  -4460544.127   5160438.069
10 0 59502  48222.000000  0   -1255069.485  -5031853.545   4525133.261
10 0 59502  48342.000000  0   -1587241.868  -5509309.619   3810191.509
10 0 59502  48462.000000  0   -1899133.716  -5884828.897   3028174.386
10 0 59502  48582.000000  0   -2183447.930  -6152246.321   2192837.730
10 0 59502  48702.000000  0   -2433283.458  -6307423.997   1318887.280
10 0 59502  48822.000000  0   -2642295.153  -6348320.276    421714.156
10 0 59502  48942.000000  0   -2804844.038  -6275017.007   -482883.774
10 0 59502  49062.000000  0   -2916134.099  -6089703.894  -1378988.817
10 0 59502  49182.000000  0   -2972332.371  -5796620.130  -2250852.255
10 0 59502  49302.000000  0   -2970669.291  -5401955.134  -3083178.573
10 0 59502  49422.000000  0   -2909516.328  -4913710.768  -3861399.049
10 0 59502  49542.000000  0   -2788438.969  -4341529.335  -4571927.518
10 0 59502  49662.000000  0   -2608224.947  -3696493.787  -5202393.889
10 0 59502  49782.000000  0   -2370888.035  -2990905.128  -5741852.674
10 0 59502  49902.000000  0   -2079647.530  -2238041.914  -6180964.043
10 0 59502  50022.000000  0   -1738883.069  -1451906.784  -6512145.162
10 0 59502  50142.000000  0   -1354066.713   -646965.414  -6729689.345
10 0 59502  50262.000000  0    -931674.965    162116.802  -6829853.343
10 0 59502  50382.000000  0    -479081.093    960735.881  -6810914.288
10 0 59502  50502.000000  0      -4428.795   1734606.040  -6673196.002
10 0 59502  50622.000000  0     483509.401   2470008.323  -6419064.491
10 0 59502  50742.000000  0     975490.369   3154029.717  -6052893.926
10 0 59502  50862.000000  0    1461971.824   3774788.303  -5580998.653
10 0 59502  50982.000000  0    1933293.106   4321639.889  -5011534.420
10 0 59502  51102.000000  0    2379864.377   4785364.769  -4354369.490
10 0 59502  51222.000000  0    2792360.047   5158330.802  -3620923.763
10 0 59502  51342.000000  0    3161912.303   5434627.715  -2823978.865
10 0 59502  51462.000000  0    3480301.847   5610170.860  -1977461.090
10 0 59502  51582.000000  0    3740140.329   5682769.864  -1096199.564
10 0 59502  51702.000000  0    3935039.413   5652160.754   -195664.072
10 0 59502  51822.000000  0    4059762.023   5519999.356    708312.157
10 0 59502  51942.000000  0    4110351.991   5289815.294   1599818.550
10 0 59502  52062.000000  0    4084238.082   4966928.166   2463154.479
10 0 59502  52182.000000  0    3980311.426   4558330.301   3283115.234
10 0 59502  52302.000000  0    3798970.328   4072532.360   4045267.989
10 0 59502  52422.000000  0    3542135.829   3519381.969   4736208.688
99
